$$SOE
2459580.500000000, A.D. 2022-Jan-01 00:00:00.0000, 1.106466402961268E+08, 5.026898422113274E+08, 2.845080028875217E+07,
2459587.500000000, A.D. 2022-Jan-08 00:00:00.0000, 1.016039523642480E+08, 5.048212759345043E+08, 2.975818908867761E+07,
2459594.500000000, A.D. 2022-Jan-15 00:00:00.0000, 9.252527503590643E+07, 5.067741115546486E+08, 3.105505071483144E+07,
2459601.500000000, A.D. 2022-Jan-22 00:00:00.0000, 8.341387780568847E+07, 5.085479521200124E+08, 3.234094405190670E+07,
2459608.500000000, A.D. 2022-Jan-29 00:00:00.0000, 7.427302954527707E+07, 5.101424552011256E+08, 3.361543262084490E+07,
2459615.500000000, A.D. 2022-Feb-05 00:00:00.0000, 6.510599580699920E+07, 5.115573319029871E+08, 3.487808476051468E+07,
2459622.500000000, A.D. 2022-Feb-12 00:00:00.0000, 5.591603831181151E+07, 5.127923448202596E+08, 3.612847352392116E+07,
2459629.500000000, A.D. 2022-Feb-19 00:00:00.0000, 4.670641529748456E+07, 5.138473073056539E+08, 3.736617660405624E+07,
2459636.500000000, A.D. 2022-Feb-26 00:00:00.0000, 3.748038141553745E+07, 5.147220833276991E+08, 3.859077635039175E+07,
2459643.500000000, A.D. 2022-Mar-05 00:00:00.0000, 2.824118733527816E+07, 5.154165873003321E+08, 3.980185981078330E+07,
2459650.500000000, A.D. 2022-Mar-12 00:00:00.0000, 1.899207927579071E+07, 5.159307838184373E+08, 4.099901877285776E+07,
2459657.500000000, A.D. 2022-Mar-19 00:00:00.0000, 9.736298536036782E+06, 5.162646873274531E+08, 4.218184980043691E+07,
2459664.500000000, A.D. 2022-Mar-26 00:00:00.0000, 4.770810446338358E+05, 5.164183617212639E+08, 4.334995426224723E+07,
2459671.500000000, A.D. 2022-Apr-02 00:00:00.0000, -8.782343003723145E+06, 5.163919198127162E+08, 4.450293834195107E+07,
2459678.500000000, A.D. 2022-Apr-09 00:00:00.0000, -1.803874915403812E+07, 5.161855226818379E+08, 4.564041300481102E+07,
2459685.500000000, A.D. 2022-Apr-16 00:00:00.0000, -2.728891798281330E+07, 5.157993795564432E+08, 4.676199394163224E+07,
2459692.500000000, A.D. 2022-Apr-23 00:00:00.0000, -3.652963494517791E+07, 5.152337493104007E+08, 4.786730169497409E+07,
2459699.500000000, A.D. 2022-Apr-30 00:00:00.0000, -4.575769264725632E+07, 5.144889413337378E+08, 4.895596195553041E+07,
2459706.500000000, A.D. 2022-May-07 00:00:00.0000, -5.496989248240526E+07, 5.135653137994506E+08, 5.002760558639982E+07,
2459713.500000000, A.D. 2022-May-14 00:00:00.0000, -6.416304424369117E+07, 5.124632723664280E+08, 5.108186849632657E+07,
2459720.500000000, A.D. 2022-May-21 00:00:00.0000, -7.333396574378990E+07, 5.111832700783659E+08, 5.211839161033547E+07,
2459727.500000000, A.D. 2022-May-28 00:00:00.0000, -8.247948292132510E+07, 5.097258074995183E+08, 5.313682090334341E+07,
2459734.500000000, A.D. 2022-Jun-04 00:00:00.0000, -9.159643015724023E+07, 5.080914327741201E+08, 5.413680744583553E+07,
2459741.500000000, A.D. 2022-Jun-11 00:00:00.0000, -1.006816506572742E+08, 5.062807416116482E+08, 5.511800744863462E+07,
2459748.500000000, A.D. 2022-Jun-18 00:00:00.0000, -1.097319968625368E+08, 5.042943772113163E+08, 5.608008230443767E+07,
2459755.500000000, A.D. 2022-Jun-25 00:00:00.0000, -1.187443308594114E+08, 5.021330300927548E+08, 5.702269862086698E+07,
2459762.500000000, A.D. 2022-Jul-02 00:00:00.0000, -1.277155246554440E+08, 4.997974377672252E+08, 5.794552822754884E+07,
2459769.500000000, A.D. 2022-Jul-09 00:00:00.0000, -1.366424599317903E+08, 4.972883844264561E+08, 5.884824813611108E+07,
2459776.500000000, A.D. 2022-Jul-16 00:00:00.0000, -1.455220273284677E+08, 4.946067017324418E+08, 5.973054054697788E+07,
2459783.500000000, A.D. 2022-Jul-23 00:00:00.0000, -1.543511274613103E+08, 4.917532707869720E+08, 6.059209311133391E+07,
2459790.500000000, A.D. 2022-Jul-30 00:00:00.0000, -1.631266735860768E+08, 4.887290219262956E+08, 6.143259916661406E+07,
2459797.500000000, A.D. 2022-Aug-06 00:00:00.0000, -1.718455923119670E+08, 4.855349329875417E+08, 6.225175766860759E+07,
2459804.500000000, A.D. 2022-Aug-13 00:00:00.0000, -1.805048231891391E+08, 4.821720288023497E+08, 6.304927312130034E+07,
2459811.500000000, A.D. 2022-Aug-20 00:00:00.0000, -1.891013187392588E+08, 4.786413814148978E+08, 6.382485560754892E+07,
2459818.500000000, A.D. 2022-Aug-27 00:00:00.0000, -1.976320448604605E+08, 4.749441102966204E+08, 6.457822085498324E+07,
2459825.500000000, A.D. 2022-Sep-03 00:00:00.0000, -2.060939813590171E+08, 4.710813824454205E+08, 6.530909030531529E+07,
2459832.500000000, A.D. 2022-Sep-10 00:00:00.0000, -2.144841225185409E+08, 4.670544123918459E+08, 6.601719118074465E+07,
2459839.500000000, A.D. 2022-Sep-17 00:00:00.0000, -2.227994776787657E+08, 4.628644621096938E+08, 6.670225654472587E+07,
2459846.500000000, A.D. 2022-Sep-24 00:00:00.0000, -2.310370717650223E+08, 4.585128407801679E+08, 6.736402534760305E+07,
2459853.500000000, A.D. 2022-Oct-01 00:00:00.0000, -2.391939455296159E+08, 4.540009043877660E+08, 6.800224243344945E+07,
2459860.500000000, A.D. 2022-Oct-08 00:00:00.0000, -2.472671550986456E+08, 4.493300556704507E+08, 6.861665851347920E+07,
2459867.500000000, A.D. 2022-Oct-15 00:00:00.0000, -2.552537717569196E+08, 4.445017456239218E+08, 6.920703028947797E+07,
2459874.500000000, A.D. 2022-Oct-22 00:00:00.0000, -2.631508841526004E+08, 4.395174748768681E+08, 6.977312078960463E+07,
2459881.500000000, A.D. 2022-Oct-29 00:00:00.0000, -2.709556004226965E+08, 4.343787923423389E+08, 7.031469947496340E+07,
2459888.500000000, A.D. 2022-Nov-05 00:00:00.0000, -2.786650481408526E+08, 4.290872938841909E+08, 7.083154214796102E+07,
2459895.500000000, A.D. 2022-Nov-12 00:00:00.0000, -2.862763740539412E+08, 4.236446222659559E+08, 7.132343094618461E+07,
2459902.500000000, A.D. 2022-Nov-19 00:00:00.0000, -2.937867443272414E+08, 4.180524674281752E+08, 7.179015440969279E+07,
2459909.500000000, A.D. 2022-Nov-26 00:00:00.0000, -3.011933450361854E+08, 4.123125666960941E+08, 7.223150756500551E+07,
2459916.500000000, A.D. 2022-Dec-03 00:00:00.0000, -3.084933827391481E+08, 4.064267049053262E+08, 7.264729200950867E+07,
2459923.500000000, A.D. 2022-Dec-10 00:00:00.0000, -3.156840850863841E+08, 4.003967144634643E+08, 7.303731599359599E+07,
2459930.500000000, A.D. 2022-Dec-17 00:00:00.0000, -3.227627014410152E+08, 3.942244753220192E+08, 7.340139449626315E+07,
2459937.500000000, A.D. 2022-Dec-24 00:00:00.0000, -3.297265034032462E+08, 3.879119147922215E+08, 7.373934927879722E+07,
2459944.500000000, A.D. 2022-Dec-31 00:00:00.0000, -3.365727848806902E+08, 3.814610073114854E+08, 7.405100889260744E+07,
2459951.500000000, A.D. 2023-Jan-07 00:00:00.0000, -3.432988615827988E+08, 3.748737751221709E+08, 7.433620870868650E+07,
2459958.500000000, A.D. 2023-Jan-14 00:00:00.0000, -3.499020719075732E+08, 3.681522903593243E+08, 7.459479118994857E+07,
2459965.500000000, A.D. 2023-Jan-21 00:00:00.0000, -3.563797798654983E+08, 3.612986753751638E+08, 7.482660620647705E+07,
2459972.500000000, A.D. 2023-Jan-28 00:00:00.0000, -3.627293763713778E+08, 3.543151011032943E+08, 7.503151104100145E+07,
2459979.500000000, A.D. 2023-Feb-04 00:00:00.0000, -3.689482791130197E+08, 3.472037864881004E+08, 7.520937035099073E+07,
2459986.500000000, A.D. 2023-Feb-11 00:00:00.0000, -3.750339327933573E+08, 3.399669987852719E+08, 7.536005623636441E+07,
2459993.500000000, A.D. 2023-Feb-18 00:00:00.0000, -3.809838098095524E+08, 3.326070539099148E+08, 7.548344835140583E+07,
2460000.500000000, A.D. 2023-Feb-25 00:00:00.0000, -3.867954111063530E+08, 3.251263166693925E+08, 7.557943402355368E+07,
2460007.500000000, A.D. 2023-Mar-04 00:00:00.0000, -3.924662671019450E+08, 3.175272008985865E+08, 7.564790837134331E+07,
2460014.500000000, A.D. 2023-Mar-11 00:00:00.0000, -3.979939386583506E+08, 3.098121694972196E+08, 7.568877441916397E+07,
2460021.500000000, A.D. 2023-Mar-18 00:00:00.0000, -4.033760180500141E+08, 3.019837343191653E+08, 7.570194320080788E+07,
2460028.500000000, A.D. 2023-Mar-25 00:00:00.0000, -4.086101297278333E+08, 2.940444558660589E+08, 7.568733382966737E+07,
2460035.500000000, A.D. 2023-Apr-01 00:00:00.0000, -4.136939304545299E+08, 2.859969431780934E+08, 7.564487352911471E+07,
2460042.500000000, A.D. 2023-Apr-08 00:00:00.0000, -4.186251094273224E+08, 2.778438551463789E+08, 7.557449777991210E+07,
2460049.500000000, A.D. 2023-Apr-15 00:00:00.0000, -4.234013907259361E+08, 2.695879021407471E+08, 7.547615070896590E+07,
2460056.500000000, A.D. 2023-Apr-22 00:00:00.0000, -4.280205362763303E+08, 2.612318449015787E+08, 7.534978530417678E+07,
2460063.500000000, A.D. 2023-Apr-29 00:00:00.0000, -4.324803465925784E+08, 2.527784929469657E+08, 7.519536338809204E+07,
2460070.500000000, A.D. 2023-May-06 00:00:00.0000, -4.367786610561783E+08, 2.442307042735424E+08, 7.501285565680096E+07,
2460077.500000000, A.D. 2023-May-13 00:00:00.0000, -4.409133587099919E+08, 2.355913854555650E+08, 7.480224180032331E+07,
2460084.500000000, A.D. 2023-May-20 00:00:00.0000, -4.448823593329419E+08, 2.268634916494245E+08, 7.456351064257020E+07,
2460091.500000000, A.D. 2023-May-27 00:00:00.0000, -4.486836246026109E+08, 2.180500264723729E+08, 7.429666028049091E+07,
2460098.500000000, A.D. 2023-Jun-03 00:00:00.0000, -4.523151592891930E+08, 2.091540417801775E+08, 7.400169821912161E+07,
2460105.500000000, A.D. 2023-Jun-10 00:00:00.0000, -4.557750124578573E+08, 2.001786373292123E+08, 7.367864149909219E+07,
2460112.500000000, A.D. 2023-Jun-17 00:00:00.0000, -4.590612785907396E+08, 1.911269602622579E+08, 7.332751680325297E+07,
2460119.500000000, A.D. 2023-Jun-24 00:00:00.0000, -4.621720983082218E+08, 1.820022044727148E+08, 7.294836051722299E+07,
2460126.500000000, A.D. 2023-Jul-01 00:00:00.0000, -4.651056584356581E+08, 1.728076106738983E+08, 7.254121878783742E+07,
2460133.500000000, A.D. 2023-Jul-08 00:00:00.0000, -4.678601930892496E+08, 1.635464679936114E+08, 7.210614779980466E+07,
2460140.500000000, A.D. 2023-Jul-15 00:00:00.0000, -4.704339870584737E+08, 1.542221142628905E+08, 7.164321415626729E+07,
2460147.500000000, A.D. 2023-Jul-22 00:00:00.0000, -4.728253779631118E+08, 1.448379339639295E+08, 7.115249495552571E+07,
$$EOE